[Satellite]
VERSION=1.1
NAME=FLOCK 3P-48
NICKNAME=FLOCK 3P-48
TLE1=1 42006U 17008BL  18020.84982233  .00001214  00000-0  53382-4 0  9991
TLE2=2 42006  97.4704  86.5661 0008641 160.1392 200.0183 15.23806984 51453
